[{"OBJECT_NAME":"HYPERFIELD-1A","OBJECT_ID":"2024-149CY","EPOCH":"2026-03-09T18:21:25.814304","MEAN_MOTION":15.29681349,"ECCENTRICITY":0.00038648,"INCLINATION":97.3842,"RA_OF_ASC_NODE":149.5066,"ARG_OF_PERICENTER":313.7844,"MEAN_ANOMALY":46.3076,"EPHEMERIS_TYPE":0,"CLASSIFICATION_TYPE":"U","NORAD_CAT_ID":60562,"ELEMENT_SET_NO":999,"REV_AT_EPOCH":8683,"BSTAR":0.00030052114,"MEAN_MOTION_DOT":8.569e-5,"MEAN_MOTION_DDOT":0},{"OBJECT_NAME":"STARLINK-32433","OBJECT_ID":"2024-202H","EPOCH":"2026-03-09T12:13:29.271648","MEAN_MOTION":15.27567455,"ECCENTRICITY":0.00017867,"INCLINATION":43.0024,"RA_OF_ASC_NODE":238.6988,"ARG_OF_PERICENTER":285.7681,"MEAN_ANOMALY":74.2974,"EPHEMERIS_TYPE":0,"CLASSIFICATION_TYPE":"U","NORAD_CAT_ID":61852,"ELEMENT_SET_NO":999,"REV_AT_EPOCH":7531,"BSTAR":1.1060254e-5,"MEAN_MOTION_DOT":4.2e-7,"MEAN_MOTION_DDOT":0}]
